{
  "type": "FeatureCollection",
  "features": [
    {
      "type": "Feature",
      "properties": {
        "norad_id": 34613,
        "name": "COSMOS 2251 DEB",
        "group": "cosmos-2251-debris",
        "lat": -62.22940112776545,
        "lon": 147.99945926744624,
        "alt_km": 847.0796981664507,
        "timestamp": "2025-12-03T17:47:51.113036+00:00",
        "meta_object_name": "COSMOS 2251 DEB",
        "meta_object_id": "1993-036WJ",
        "meta_epoch": "2025-12-02T14:16:40.154016",
        "meta_mean_motion": 14.26335648,
        "meta_eccentricity": 0.01101588,
        "meta_inclination": 73.9632,
        "meta_ra_of_asc_node": 296.9732,
        "meta_arg_of_pericenter": 131.4585,
        "meta_mean_anomaly": 348.8647,
        "meta_ephemeris_type": 0,
        "meta_classification_type": "U",
        "meta_norad_cat_id": 34613,
        "meta_element_set_no": 999,
        "meta_rev_at_epoch": 86318,
        "meta_bstar": 0.0014991683,
        "meta_mean_motion_dot": 3.815e-05,
        "meta_mean_motion_ddot": 0,
        "tle_line1": "1 34613U 93036WJ  25336.59490919  .00003815  00000+0  14992-2 0  9996",
        "tle_line2": "2 34613  73.9632 296.9732 0110158 131.4585 348.8647 14.26335648863188"
      },
      "geometry": {
        "type": "Point",
        "coordinates": [
          147.99945926744624,
          -62.22940112776545
        ]
      }
    },
    {
      "type": "Feature",
      "properties": {
        "norad_id": 34614,
        "name": "COSMOS 2251 DEB",
        "group": "cosmos-2251-debris",
        "lat": 72.68106416988873,
        "lon": 112.04011212046639,
        "alt_km": 851.7532711931599,
        "timestamp": "2025-12-03T17:47:51.113047+00:00",
        "meta_object_name": "COSMOS 2251 DEB",
        "meta_object_id": "1993-036WK",
        "meta_epoch": "2025-12-02T21:17:05.186112",
        "meta_mean_motion": 14.17081301,
        "meta_eccentricity": 0.01965888,
        "meta_inclination": 73.8803,
        "meta_ra_of_asc_node": 1.6106,
        "meta_arg_of_pericenter": 357.259,
        "meta_mean_anomaly": 58.3338,
        "meta_ephemeris_type": 0,
        "meta_classification_type": "U",
        "meta_norad_cat_id": 34614,
        "meta_element_set_no": 999,
        "meta_rev_at_epoch": 84627,
        "meta_bstar": 0.0059272273,
        "meta_mean_motion_dot": 0.00014422,
        "meta_mean_motion_ddot": 0,
        "tle_line1": "1 34614U 93036WK  25336.88686558  .00014422  00000+0  59272-2 0  9991",
        "tle_line2": "2 34614  73.8803   1.6106 0196588 357.2590  58.3338 14.17081301846274"
      },
      "geometry": {
        "type": "Point",
        "coordinates": [
          112.04011212046639,
          72.68106416988873
        ]
      }
    },
    {
      "type": "Feature",
      "properties": {
        "norad_id": 34615,
        "name": "COSMOS 2251 DEB",
        "group": "cosmos-2251-debris",
        "lat": -56.97477101430583,
        "lon": -77.6068579990129,
        "alt_km": 1015.7577603973996,
        "timestamp": "2025-12-03T17:47:51.113058+00:00",
        "meta_object_name": "COSMOS 2251 DEB",
        "meta_object_id": "1993-036WL",
        "meta_epoch": "2025-12-01T17:17:48.208704",
        "meta_mean_motion": 13.52196517,
        "meta_eccentricity": 0.04023715,
        "meta_inclination": 74.0055,
        "meta_ra_of_asc_node": 311.8151,
        "meta_arg_of_pericenter": 221.3257,
        "meta_mean_anomaly": 319.7339,
        "meta_ephemeris_type": 0,
        "meta_classification_type": "U",
        "meta_norad_cat_id": 34615,
        "meta_element_set_no": 999,
        "meta_rev_at_epoch": 82666,
        "meta_bstar": 4.7217708e-05,
        "meta_mean_motion_dot": 2.9e-07,
        "meta_mean_motion_ddot": 0,
        "tle_line1": "1 34615U 93036WL  25335.72069686  .00000029  00000+0  47218-4 0  9998",
        "tle_line2": "2 34615  74.0055 311.8151 0402371 221.3257 319.7339 13.52196517826664"
      },
      "geometry": {
        "type": "Point",
        "coordinates": [
          -77.6068579990129,
          -56.97477101430583
        ]
      }
    },
    {
      "type": "Feature",
      "properties": {
        "norad_id": 34619,
        "name": "COSMOS 2251 DEB",
        "group": "cosmos-2251-debris",
        "lat": 15.405943879025914,
        "lon": 32.7083315786173,
        "alt_km": 736.5941987430497,
        "timestamp": "2025-12-03T17:47:51.113069+00:00",
        "meta_object_name": "COSMOS 2251 DEB",
        "meta_object_id": "1993-036WQ",
        "meta_epoch": "2025-12-03T02:17:30.920064",
        "meta_mean_motion": 14.64603325,
        "meta_eccentricity": 0.00945548,
        "meta_inclination": 74.0445,
        "meta_ra_of_asc_node": 218.4709,
        "meta_arg_of_pericenter": 315.5653,
        "meta_mean_anomaly": 43.7955,
        "meta_ephemeris_type": 0,
        "meta_classification_type": "U",
        "meta_norad_cat_id": 34619,
        "meta_element_set_no": 999,
        "meta_rev_at_epoch": 89157,
        "meta_bstar": 0.00031453449,
        "meta_mean_motion_dot": 1.749e-05,
        "meta_mean_motion_ddot": 0,
        "tle_line1": "1 34619U 93036WQ  25337.09549676  .00001749  00000+0  31453-3 0  9999",
        "tle_line2": "2 34619  74.0445 218.4709 0094554 315.5653  43.7955 14.64603325891572"
      },
      "geometry": {
        "type": "Point",
        "coordinates": [
          32.7083315786173,
          15.405943879025914
        ]
      }
    },
    {
      "type": "Feature",
      "properties": {
        "norad_id": 34620,
        "name": "COSMOS 2251 DEB",
        "group": "cosmos-2251-debris",
        "lat": -7.454534418289517,
        "lon": 58.53099676386446,
        "alt_km": 729.6893834507973,
        "timestamp": "2025-12-03T17:47:51.113080+00:00",
        "meta_object_name": "COSMOS 2251 DEB",
        "meta_object_id": "1993-036WR",
        "meta_epoch": "2025-12-03T03:40:05.521152",
        "meta_mean_motion": 14.48819497,
        "meta_eccentricity": 0.0081909,
        "meta_inclination": 74.0521,
        "meta_ra_of_asc_node": 237.4888,
        "meta_arg_of_pericenter": 276.0951,
        "meta_mean_anomaly": 83.0881,
        "meta_ephemeris_type": 0,
        "meta_classification_type": "U",
        "meta_norad_cat_id": 34620,
        "meta_element_set_no": 999,
        "meta_rev_at_epoch": 86688,
        "meta_bstar": 0.003290247,
        "meta_mean_motion_dot": 0.00012967,
        "meta_mean_motion_ddot": 0,
        "tle_line1": "1 34620U 93036WR  25337.15284168  .00012967  00000+0  32902-2 0  9993",
        "tle_line2": "2 34620  74.0521 237.4888 0081909 276.0951  83.0881 14.48819497866882"
      },
      "geometry": {
        "type": "Point",
        "coordinates": [
          58.53099676386446,
          -7.454534418289517
        ]
      }
    },
    {
      "type": "Feature",
      "properties": {
        "norad_id": 34622,
        "name": "COSMOS 2251 DEB",
        "group": "cosmos-2251-debris",
        "lat": -21.59384619948999,
        "lon": -43.346146139302554,
        "alt_km": 797.6430514978847,
        "timestamp": "2025-12-03T17:47:51.113091+00:00",
        "meta_object_name": "COSMOS 2251 DEB",
        "meta_object_id": "1993-036WT",
        "meta_epoch": "2025-12-03T06:09:34.973856",
        "meta_mean_motion": 14.21976964,
        "meta_eccentricity": 0.0103992,
        "meta_inclination": 74.0416,
        "meta_ra_of_asc_node": 324.0265,
        "meta_arg_of_pericenter": 48.8586,
        "meta_mean_anomaly": 328.5405,
        "meta_ephemeris_type": 0,
        "meta_classification_type": "U",
        "meta_norad_cat_id": 34622,
        "meta_element_set_no": 999,
        "meta_rev_at_epoch": 86325,
        "meta_bstar": 0.0012722,
        "meta_mean_motion_dot": 2.945e-05,
        "meta_mean_motion_ddot": 0,
        "tle_line1": "1 34622U 93036WT  25337.25665479  .00002945  00000+0  12722-2 0  9997",
        "tle_line2": "2 34622  74.0416 324.0265 0103992  48.8586 328.5405 14.21976964863256"
      },
      "geometry": {
        "type": "Point",
        "coordinates": [
          -43.346146139302554,
          -21.59384619948999
        ]
      }
    },
    {
      "type": "Feature",
      "properties": {
        "norad_id": 34626,
        "name": "COSMOS 2251 DEB",
        "group": "cosmos-2251-debris",
        "lat": -17.548576571671262,
        "lon": -23.80191441524234,
        "alt_km": 659.427485789297,
        "timestamp": "2025-12-03T17:47:51.113101+00:00",
        "meta_object_name": "COSMOS 2251 DEB",
        "meta_object_id": "1993-036WX",
        "meta_epoch": "2025-12-03T10:25:41.739168",
        "meta_mean_motion": 14.72014634,
        "meta_eccentricity": 0.0026193,
        "meta_inclination": 74.048,
        "meta_ra_of_asc_node": 341.9842,
        "meta_arg_of_pericenter": 73.1994,
        "meta_mean_anomaly": 82.4621,
        "meta_ephemeris_type": 0,
        "meta_classification_type": "U",
        "meta_norad_cat_id": 34626,
        "meta_element_set_no": 999,
        "meta_rev_at_epoch": 89007,
        "meta_bstar": 0.0012404,
        "meta_mean_motion_dot": 7.808e-05,
        "meta_mean_motion_ddot": 0,
        "tle_line1": "1 34626U 93036WX  25337.43451087  .00007808  00000+0  12404-2 0  9999",
        "tle_line2": "2 34626  74.0480 341.9842 0026193  73.1994  82.4621 14.72014634890070"
      },
      "geometry": {
        "type": "Point",
        "coordinates": [
          -23.80191441524234,
          -17.548576571671262
        ]
      }
    }
  ]
}